CCSDS_OMM_VERS = 2.0
CREATION_DATE  = 
ORIGINATOR     = 

OBJECT_NAME    = 2020-061F
OBJECT_ID      = 2020-061F
CENTER_NAME    = EARTH
REF_FRAME      = TEME
TIME_SYSTEM    = UTC
MEAN_ELEMENT_THEORY = SGP/SGP4

EPOCH          = 2020-09-09T03:36:43.214688
MEAN_MOTION    = 15.16069364
ECCENTRICITY   = .0000276
INCLINATION    = 97.4642
RA_OF_ASC_NODE = 326.1425
ARG_OF_PERICENTER = 149.1244
MEAN_ANOMALY   = 211.0005

EPHEMERIS_TYPE = 0
CLASSIFICATION_TYPE = U
NORAD_CAT_ID   = 46277
ELEMENT_SET_NO = 999
REV_AT_EPOCH   = 91
BSTAR          = .16233E-4
MEAN_MOTION_DOT = 2.47E-6
MEAN_MOTION_DDOT = 0

CCSDS_OMM_VERS = 2.0
CREATION_DATE  = 
ORIGINATOR     = 

OBJECT_NAME    = GHGSAT-C1
OBJECT_ID      = 2020-061G
CENTER_NAME    = EARTH
REF_FRAME      = TEME
TIME_SYSTEM    = UTC
MEAN_ELEMENT_THEORY = SGP/SGP4

EPOCH          = 2020-09-09T03:35:20.728608
MEAN_MOTION    = 15.16311071
ECCENTRICITY   = .0001746
INCLINATION    = 97.4643
RA_OF_ASC_NODE = 326.1437
ARG_OF_PERICENTER = 9.2492
MEAN_ANOMALY   = 350.8773

EPHEMERIS_TYPE = 0
CLASSIFICATION_TYPE = U
NORAD_CAT_ID   = 46278
ELEMENT_SET_NO = 999
REV_AT_EPOCH   = 91
BSTAR          = .23479E-4
MEAN_MOTION_DOT = 3.89E-6
MEAN_MOTION_DDOT = 0

CCSDS_OMM_VERS = 2.0
CREATION_DATE  = 
ORIGINATOR     = 

OBJECT_NAME    = STARLINK-1734
OBJECT_ID      = 2020-062A
CENTER_NAME    = EARTH
REF_FRAME      = TEME
TIME_SYSTEM    = UTC
MEAN_ELEMENT_THEORY = SGP/SGP4

EPOCH          = 2020-09-08T22:00:00.999936
MEAN_MOTION    = 16.15915973
ECCENTRICITY   = .0031785
INCLINATION    = 52.9966
RA_OF_ASC_NODE = 43.3067
ARG_OF_PERICENTER = 58.6134
MEAN_ANOMALY   = 218.3195

EPHEMERIS_TYPE = 0
CLASSIFICATION_TYPE = U
NORAD_CAT_ID   = 46325
ELEMENT_SET_NO = 999
REV_AT_EPOCH   = 211
BSTAR          = .10248E-3
MEAN_MOTION_DOT = 1.61431E-3
MEAN_MOTION_DDOT = .11734E-4

CCSDS_OMM_VERS = 2.0
CREATION_DATE  = 
ORIGINATOR     = 

OBJECT_NAME    = CZ-2F R/B
OBJECT_ID      = 2020-063B
CENTER_NAME    = EARTH
REF_FRAME      = TEME
TIME_SYSTEM    = UTC
MEAN_ELEMENT_THEORY = SGP/SGP4

EPOCH          = 2020-09-08T22:03:10.711872
MEAN_MOTION    = 15.77511391
ECCENTRICITY   = .0015803
INCLINATION    = 50.2045
RA_OF_ASC_NODE = 41.7556
ARG_OF_PERICENTER = 314.3484
MEAN_ANOMALY   = 45.6201

EPHEMERIS_TYPE = 0
CLASSIFICATION_TYPE = U
NORAD_CAT_ID   = 46390
ELEMENT_SET_NO = 999
REV_AT_EPOCH   = 73
BSTAR          = .71104E-4
MEAN_MOTION_DOT = 1.1522E-4
MEAN_MOTION_DDOT = 0

CCSDS_OMM_VERS = 2.0
CREATION_DATE  = 
ORIGINATOR     = 

OBJECT_NAME    = CZ-2F DEB
OBJECT_ID      = 2020-063C
CENTER_NAME    = EARTH
REF_FRAME      = TEME
TIME_SYSTEM    = UTC
MEAN_ELEMENT_THEORY = SGP/SGP4

EPOCH          = 2020-09-08T17:09:57.040128
MEAN_MOTION    = 15.37210418
ECCENTRICITY   = .0159921
INCLINATION    = 49.9026
RA_OF_ASC_NODE = 44.3312
ARG_OF_PERICENTER = 163.3015
MEAN_ANOMALY   = 197.3288

EPHEMERIS_TYPE = 0
CLASSIFICATION_TYPE = U
NORAD_CAT_ID   = 46391
ELEMENT_SET_NO = 999
REV_AT_EPOCH   = 67
BSTAR          = .10990E-2
MEAN_MOTION_DOT = 6.3333E-4
MEAN_MOTION_DDOT = 0

CCSDS_OMM_VERS = 2.0
CREATION_DATE  = 
ORIGINATOR     = 

OBJECT_NAME    = CZ-2F DEB
OBJECT_ID      = 2020-063D
CENTER_NAME    = EARTH
REF_FRAME      = TEME
TIME_SYSTEM    = UTC
MEAN_ELEMENT_THEORY = SGP/SGP4

EPOCH          = 2020-09-08T16:27:25.788960
MEAN_MOTION    = 15.47637418
ECCENTRICITY   = .0116544
INCLINATION    = 49.8675
RA_OF_ASC_NODE = 44.1513
ARG_OF_PERICENTER = 169.6230
MEAN_ANOMALY   = 190.7020

EPHEMERIS_TYPE = 0
CLASSIFICATION_TYPE = U
NORAD_CAT_ID   = 46392
ELEMENT_SET_NO = 999
REV_AT_EPOCH   = 67
BSTAR          = .11643E-2
MEAN_MOTION_DOT = 8.0707E-4
MEAN_MOTION_DDOT = 0

CCSDS_OMM_VERS = 2.0
CREATION_DATE  = 
ORIGINATOR     = 

OBJECT_NAME    = CZ-2F DEB
OBJECT_ID      = 2020-063E
CENTER_NAME    = EARTH
REF_FRAME      = TEME
TIME_SYSTEM    = UTC
MEAN_ELEMENT_THEORY = SGP/SGP4

EPOCH          = 2020-09-08T17:02:28.247424
MEAN_MOTION    = 15.61966934
ECCENTRICITY   = .0107063
INCLINATION    = 50.4194
RA_OF_ASC_NODE = 43.3179
ARG_OF_PERICENTER = 222.3628
MEAN_ANOMALY   = 136.9129

EPHEMERIS_TYPE = 0
CLASSIFICATION_TYPE = U
NORAD_CAT_ID   = 46393
ELEMENT_SET_NO = 999
REV_AT_EPOCH   = 51
BSTAR          = .11507E-2
MEAN_MOTION_DOT = 1.38715E-3
MEAN_MOTION_DDOT = 0

CCSDS_OMM_VERS = 2.0
CREATION_DATE  = 
ORIGINATOR     = 

OBJECT_NAME    = CZ-2F DEB
OBJECT_ID      = 2020-063F
CENTER_NAME    = EARTH
REF_FRAME      = TEME
TIME_SYSTEM    = UTC
MEAN_ELEMENT_THEORY = SGP/SGP4

EPOCH          = 2020-09-08T19:04:14.037024
MEAN_MOTION    = 15.54666715
ECCENTRICITY   = .0114104
INCLINATION    = 50.4628
RA_OF_ASC_NODE = 43.1098
ARG_OF_PERICENTER = 205.0071
MEAN_ANOMALY   = 154.5240

EPHEMERIS_TYPE = 0
CLASSIFICATION_TYPE = U
NORAD_CAT_ID   = 46394
ELEMENT_SET_NO = 999
REV_AT_EPOCH   = 56
BSTAR          = .10712E-2
MEAN_MOTION_DOT = 9.7579E-4
MEAN_MOTION_DDOT = 0

CCSDS_OMM_VERS = 2.0
CREATION_DATE  = 
ORIGINATOR     = 

OBJECT_NAME    = 2020-063G
OBJECT_ID      = 2020-063G
CENTER_NAME    = EARTH
REF_FRAME      = TEME
TIME_SYSTEM    = UTC
MEAN_ELEMENT_THEORY = SGP/SGP4

EPOCH          = 2020-09-08T20:34:34.468032
MEAN_MOTION    = 15.76752637
ECCENTRICITY   = .0011892
INCLINATION    = 50.2070
RA_OF_ASC_NODE = 42.1142
ARG_OF_PERICENTER = 309.0052
MEAN_ANOMALY   = 50.9869

EPHEMERIS_TYPE = 0
CLASSIFICATION_TYPE = U
NORAD_CAT_ID   = 46395
ELEMENT_SET_NO = 999
REV_AT_EPOCH   = 72
BSTAR          = .54437E-4
MEAN_MOTION_DOT = 8.328E-5
MEAN_MOTION_DDOT = 0

CCSDS_OMM_VERS = 2.0
CREATION_DATE  = 
ORIGINATOR     = 

OBJECT_NAME    = 2020-064A
OBJECT_ID      = 2020-064A
CENTER_NAME    = EARTH
REF_FRAME      = TEME
TIME_SYSTEM    = UTC
MEAN_ELEMENT_THEORY = SGP/SGP4

EPOCH          = 2020-09-09T04:51:50.673312
MEAN_MOTION    = 15.31798244
ECCENTRICITY   = .0326550
INCLINATION    = 97.3306
RA_OF_ASC_NODE = 5.3398
ARG_OF_PERICENTER = 164.6036
MEAN_ANOMALY   = 289.2895

EPHEMERIS_TYPE = 0
CLASSIFICATION_TYPE = U
NORAD_CAT_ID   = 46396
ELEMENT_SET_NO = 999
REV_AT_EPOCH   = 30
BSTAR          = .00000E+0
MEAN_MOTION_DOT = -5.97E-6
MEAN_MOTION_DDOT = .18911E-5

CCSDS_OMM_VERS = 2.0
CREATION_DATE  = 
ORIGINATOR     = 

OBJECT_NAME    = 2020-064B
OBJECT_ID      = 2020-064B
CENTER_NAME    = EARTH
REF_FRAME      = TEME
TIME_SYSTEM    = UTC
MEAN_ELEMENT_THEORY = SGP/SGP4

EPOCH          = 2020-09-09T03:46:20.853120
MEAN_MOTION    = 15.68182580
ECCENTRICITY   = .0197360
INCLINATION    = 97.2642
RA_OF_ASC_NODE = 5.3562
ARG_OF_PERICENTER = 144.2573
MEAN_ANOMALY   = 305.9646

EPHEMERIS_TYPE = 0
CLASSIFICATION_TYPE = U
NORAD_CAT_ID   = 46397
ELEMENT_SET_NO = 999
REV_AT_EPOCH   = 30
BSTAR          = .00000E+0
MEAN_MOTION_DOT = -6.34E-6
MEAN_MOTION_DDOT = .20067E-5

