2020-061F               
1 46277U 20061F   20253.15050017  .00000247  00000-0  16233-4 0  9998
2 46277  97.4642 326.1425 0000276 149.1244 211.0005 15.16069364   913
GHGSAT-C1               
1 46278U 20061G   20253.14954547  .00000389  00000-0  23479-4 0  9996
2 46278  97.4643 326.1437 0001746   9.2492 350.8773 15.16311071   911
STARLINK-1734           
1 46325U 20062A   20252.91667824  .00161431  11734-4  10248-3 0  9998
2 46325  52.9966  43.3067 0031785  58.6134 218.3195 16.15915973  2113
CZ-2F R/B               
1 46390U 20063B   20252.91887398  .00011522  00000-0  71104-4 0  9995
2 46390  50.2045  41.7556 0015803 314.3484  45.6201 15.77511391   730
CZ-2F DEB               
1 46391U 20063C   20252.71524352  .00063333  00000-0  10990-2 0  9993
2 46391  49.9026  44.3312 0159921 163.3015 197.3288 15.37210418   671
CZ-2F DEB               
1 46392U 20063D   20252.68571515  .00080707  00000-0  11643-2 0  9993
2 46392  49.8675  44.1513 0116544 169.6230 190.7020 15.47637418   679
CZ-2F DEB               
1 46393U 20063E   20252.71004916  .00138715  00000-0  11507-2 0  9996
2 46393  50.4194  43.3179 0107063 222.3628 136.9129 15.61966934   516
CZ-2F DEB               
1 46394U 20063F   20252.79460691  .00097579  00000-0  10712-2 0  9990
2 46394  50.4628  43.1098 0114104 205.0071 154.5240 15.54666715   562
2020-063G               
1 46395U 20063G   20252.85734338  .00008328  00000-0  54437-4 0  9998
2 46395  50.2070  42.1142 0011892 309.0052  50.9869 15.76752637   722
2020-064A               
1 46396U 20064A   20253.20266983 -.00000597  18911-5  00000+0 0  9994
2 46396  97.3306   5.3398 0326550 164.6036 289.2895 15.31798244   303
2020-064B               
1 46397U 20064B   20253.15718580 -.00000634  20067-5  00000+0 0  9991
2 46397  97.2642   5.3562 0197360 144.2573 305.9646 15.68182580   304
